uname,pwd,email,tcc1,cb1,fname1,lname1,mname1,address1,city1,state1,zip1,phone1,paymentID1,sAddressId1,tcc2,cb2,fname2,lname2,mname2,address2,city2,state2,zip2,phone2,paymentID2,sAddressId2
icp_tta_prf1_iamtestpass_user21,Intuit@!123,icp_tta_prf1_iamtestpass_user21@blackhole.intuit.com,9849925247714130,visa,BARRY,GRAWE,DAVID,200 N HARRISVILLE  RD 39,OGDEN,UT,84404,3858579049,cc-1fb751bf-6619-424e-8a43-35b0193c1201,1264622230,9849925247714231,visa,WESLEY,DOBRE,GEORGE,87  DOGWOOD  DR ,HOMOSASSA,FL,34446,7543258911,cc-ce5d0ec4-0894-4edc-8384-2266ad8708d7,1264622265
icp_tta_prf1_iamtestpass_user22,Intuit@!123,icp_tta_prf1_iamtestpass_user22@blackhole.intuit.com,9849925247714131,visa,DENNIS,KIM,CARLOS,19287  DEL MAR  DR ,FORT BRAGG,CA,95437,5592159781,cc-c0e45a9d-487b-469e-98ee-954bf9a8ce0b,1264623295,9849925247714232,visa,DOREEN,DURAND,LINDSEY,1110  MARKET  ST 1,CHATTANOOGA,TN,37402,9016819460,cc-69c358d8-c079-4e41-92fa-79367bd453d4,1264623355
icp_tta_prf1_iamtestpass_user23,Intuit@!123,icp_tta_prf1_iamtestpass_user23@blackhole.intuit.com,9849925247714132,visa,JAMIE,FIELDS,OPAL,240  HAMMOCK SHORE  DR 129,MELBOURNE BEACH,FL,32951,3868261554,cc-139a21c4-80b8-4e03-961e-4dc489dd1b3c,1264624090,9849925247714233,visa,MARY,SIMPSON,PRISCILLA,160 W 132ND  ST 3M,NEW YORK,NY,10027,5857426742,cc-45b106d6-3937-4010-b09b-b43859e44a89,1264624275
icp_tta_prf1_iamtestpass_user24,Intuit@!123,icp_tta_prf1_iamtestpass_user24@blackhole.intuit.com,9849925247714133,visa,BILLY,NICHOLSON,WILLIAM,3040 NW 68TH  ST ,FORT LAUDERDALE,FL,33309,8632552611,cc-ea187242-d9b5-488e-a431-605c7d0d8300,1264625060,9849925247714234,visa,NICHOLE,GLENN,BARBARA,371  LEWIS  DR ,MC CLURE,PA,17841,8353946002,cc-1188be30-6ef4-4da4-9779-49ae64605ee3,1264625095
icp_tta_prf1_iamtestpass_user25,Intuit@!123,icp_tta_prf1_iamtestpass_user25@blackhole.intuit.com,9849925247714134,visa,DELANA,WASHINGTON,HEATHER,218 S 60TH  ST ,PHILADELPHIA,PA,19139,3582777990,cc-aa800d43-afda-49a2-acdd-19140f486689,1264625895,9849925247714235,visa,PEDRO,BRINKLEY,JOHN,9457  BIG MEADOWS  RD ,JEFFERSON CITY,MO,65101,5572096837,cc-78909cce-5233-40c9-b692-66193c3324a9,1264626040
icp_tta_prf1_iamtestpass_user26,Intuit@!123,icp_tta_prf1_iamtestpass_user26@blackhole.intuit.com,9849925247714135,visa,JORDAN,RAMERIZ,JASPER,50986  REED  RD ,SARAHSVILLE,OH,43779,5673546319,cc-a649fc9c-a824-4f6d-b4f5-a6db6b71cfb9,1264626830,9849925247714236,visa,CHRISTINE,CHAMBERS,JOANNE,9750  ROYAL  LN 715,DALLAS,TX,75231,9033612308,cc-89d49270-c57b-4b1a-88aa-c72254506731,1264626885
icp_tta_prf1_iamtestpass_user27,Intuit@!123,icp_tta_prf1_iamtestpass_user27@blackhole.intuit.com,9849925247714136,visa,MATTHEW,PYON,ERIC,112  WARREN WILLIAMS   103D,COLUMBUS,GA,31906,4702164887,cc-3ecfc8f4-8652-4e2c-b1e7-30ca9687d01c,1264628030,9849925247714237,visa,SARA,BREEDLOVE,RENEE,2331  HIGHWAY 212   ,MARSHALL,NC,28753,2528022592,cc-c607e0f7-0408-4718-a47e-0cea28c19e7e,1264628120
icp_tta_prf1_iamtestpass_user28,Intuit@!123,icp_tta_prf1_iamtestpass_user28@blackhole.intuit.com,9849925247714137,visa,JOSE,DAVIS,DUANE,3  RURAL ROUTE   409,CLAREMONT,NH,03743,6034959213,cc-3bcaf694-bc63-4241-9b35-c604cddc99f7,1264629105,9849925247714238,visa,ALICE,DONSON,MARIA,21  CHESTNUT  CIR ,WEST SUFFIELD,CT,06093,9594142410,cc-c1b64ab9-755b-4eda-9ec1-2a9333ee920d,1264629105
icp_tta_prf1_iamtestpass_user29,Intuit@!123,icp_tta_prf1_iamtestpass_user29@blackhole.intuit.com,9849925247714138,visa,MARY,ROBERTS,ROSA,369 N BUCKEYE  ST ,STAFFORD,KS,67578,3162782346,cc-338d47b0-c9ce-4170-9cc9-8397209c2cb0,1264629955,9849925247714239,visa,RICHARD,MUNEY,VERNON,1  RURAL ROUTE   148,BRONTE,TX,76933,7379072801,cc-53a0e0e8-fea9-4dd0-a2dd-fa7cc4ece805,1264630000
icp_tta_prf1_iamtestpass_user30,Intuit@!123,icp_tta_prf1_iamtestpass_user30@blackhole.intuit.com,9849925247714139,visa,LOWELL,VANDENHEUVEL,DENNIS,1000  LAKEVIEW  DR ,CHANDLER,TX,75758,7373802469,cc-9a1dec9e-a6ee-4229-b31d-6a5ee50e2f9f,1264630915,9849925247714240,visa,DEBORAH,CORRAL,MARGARET,910  BIG TREE  RD ,SOUTH DAYTONA,FL,32119,8502456108,cc-2424de3e-a640-4d29-97fd-667301f9ed1c,1264630935
icp_tta_prf1_iamtestpass_user31,Intuit@!123,icp_tta_prf1_iamtestpass_user31@blackhole.intuit.com,9849925247714140,visa,BERTHA,HODGE,ELIZABETH,21294 NW SAINT HELENS  RD ,PORTLAND,OR,97231,9719849252,cc-66d6f241-a24b-40ea-8981-65e4e50561b2,1264631620,9849925247714241,visa,JAMES,PAYTON,ROBERT,150 E PIERCE  RD ,ITASCA,IL,60143,6305852557,cc-d144c1ce-5e92-4d97-b2ca-d802cdc43423,1264631590
icp_tta_prf1_iamtestpass_user32,Intuit@!123,icp_tta_prf1_iamtestpass_user32@blackhole.intuit.com,9849925247714141,visa,MANUEL,DEROSA,RICHARD,2  RURAL ROUTE   314,WAGONER,OK,74467,5803421373,cc-d9db7602-d76c-41a7-911f-05ff766d12c9,1264632375,9849925247714242,visa,CARLOS,CHANDLER,TOBIAS,6700  DISTRICT HTS  PKWY 9,DISTRICT HEIGHTS,MD,20747,3012575421,cc-e4ea7624-6774-4247-992e-2a0b9a3ab234,1264632450
icp_tta_prf1_iamtestpass_user33,Intuit@!123,icp_tta_prf1_iamtestpass_user33@blackhole.intuit.com,9849925247714142,visa,ALAN,DUPUIS,ROBERT,34284  CYPRESS  RD ,MILLINGTON,MD,21651,4434853435,cc-641efdc9-b12c-4b2d-b8f3-784123a5a985,1264633325,9849925247714243,visa,ALVINA,AVEY,SHANNON,5313  CREEK RIDGE  LN E,RALEIGH,NC,27607,7043382188,cc-b859af50-9e2e-445b-b6d8-092464b5b7fe,1264633340
icp_tta_prf1_iamtestpass_user34,Intuit@!123,icp_tta_prf1_iamtestpass_user34@blackhole.intuit.com,9849925247714143,visa,KAYLA,THOMAS,KACEY,7445 W CHARSTON  BLVD ,LAS VEGAS,NV,89117,7755182320,cc-8fcf27b4-382b-4dbe-b470-4b3a48e02865,1264634205,9849925247714244,visa,MURRAY,MAPLES,ERIC,207  MORNINGVIEW  DR ,ATHENS,GA,30605,6787458777,cc-3034e3bc-fd87-40ef-8dfd-b5ba42ccc6a6,1264634285
icp_tta_prf1_iamtestpass_user35,Intuit@!123,icp_tta_prf1_iamtestpass_user35@blackhole.intuit.com,9849925247714144,visa,TYRONE,KULL,CHRISTIAN,8995  RANCHO GRANDE  CT ,ELK GROVE,CA,95624,2093134011,cc-9e5b03cc-3036-4a3d-8286-a0e30e519e6c,1264634985,9849925247714245,visa,GERTRUDE,WILSON,RITA,4923 S 24TH  ST B2,OMAHA,NE,68107,3083656522,cc-b5ba22df-7c1b-478a-a14a-64f5bc5aba49,1264634865
icp_tta_prf1_iamtestpass_user36,Intuit@!123,icp_tta_prf1_iamtestpass_user36@blackhole.intuit.com,9849925247714145,visa,LISA,HOLMQUIST,RITA,21806 NE FAIRVIEW LAKE  WAY ,FAIRVIEW,OR,97024,9714694802,cc-52c1c7e6-fec4-4979-82cd-6bc5e9752f7d,1264635650,9849925247714246,visa,JESSICA,BASBAS,CAROLINE,160  JOEY  DR ,ELK GROVE VILLAGE,IL,60007,3127583050,cc-6066d22d-ce3e-48f5-aec2-5acdfd14bdbb,1264635685
icp_tta_prf1_iamtestpass_user37,Intuit@!123,icp_tta_prf1_iamtestpass_user37@blackhole.intuit.com,9849925247714146,visa,KYLA,WARD,MALINDA,18293  HIGHWAY 432   ,CLINTON,LA,70722,2252378508,cc-9f2cb598-afa5-4f83-952b-35bc1bd9477f,1264636705,9849925247714247,visa,AMBER,DAVIS,MARY,11933  GREVILLEA  AVE A,HAWTHORNE,CA,90250,6287665184,cc-6d41a73d-08ac-4130-9897-ff5fa8c39298,1264636735
icp_tta_prf1_iamtestpass_user38,Intuit@!123,icp_tta_prf1_iamtestpass_user38@blackhole.intuit.com,9849925247714147,visa,PAMELA,BURNETTE,RUTH,1418  LYNN  ST 5,THIBODAUX,LA,70301,9853126454,cc-d9955291-a796-45cc-9233-e4ffafb7d494,1264637690,9849925247714248,visa,KIM,ALEXANDER,JUANITA,6089  INTERSTATE NORTH NW PKWY ,ATLANTA,GA,30328,4783576260,cc-2060d63c-51f5-4906-b7f4-ce8adc14fabb,1264637775
icp_tta_prf1_iamtestpass_user39,Intuit@!123,icp_tta_prf1_iamtestpass_user39@blackhole.intuit.com,9849925247714148,visa,LINDA,PHELPS,DOMINIQUE,19638  BIG BEND  DR ,FLINT,TX,75762,9369808826,cc-6d5d7379-34bd-4376-9c4f-d363bc7640bb,1264638720,9849925247714249,visa,EMILY,BOLING,LISA,5655 N ADRIAN  AVE ,KANSAS CITY,MO,64151,4175128088,cc-2daa88c3-5c2b-4fa1-b351-2d66942cca77,1264638740
icp_tta_prf1_iamtestpass_user40,Intuit@!123,icp_tta_prf1_iamtestpass_user40@blackhole.intuit.com,9849925247714149,visa,DOREEN,GREENE,DEVON,16  AUSTIN  RD ,JACKSON,AL,36545,2565468326,cc-f99ad045-78ab-42e5-89d3-8ef5d5f5332e,1264639725,9849925247714250,visa,ELIZABETH,MCDERMOTT,KELLY,303  SILVER LAKES TRAILER  PARK ,CLARKSVILLE,IN,47129,8124631328,cc-edb02218-2d75-4a88-bec6-86c54eaf2e3c,1264639760
icp_tta_prf1_iamtestpass_user41,Intuit@!123,icp_tta_prf1_iamtestpass_user41@blackhole.intuit.com,9849925247714150,visa,MARGARET,WHELAN,CARIN,2841  GREENBRIAR SW PKWY N478,ATLANTA,GA,30331,4043863362,cc-0c6f1dd2-c80c-4160-bd7c-1a28762f019b,1264641210,9849925247714251,visa,ZENAIDA,BURTON,SANDRA,177  DALE VIEW  DR ,SHEPHERDSVILLE,KY,40165,3276140988,cc-c14ed14b-3701-4520-9d07-2e4b1b525c70,1264641145
icp_tta_prf1_iamtestpass_user42,Intuit@!123,icp_tta_prf1_iamtestpass_user42@blackhole.intuit.com,9849925247714151,visa,MICHELLE,PRATT,MARY,3475  LITTLE LEATHERWOOD CREEK  RD ,CORNETTSVILLE,KY,41731,5025388952,cc-ccbe5947-b4cd-4b17-9119-17020b5fd065,1264642070,9849925247714252,visa,EDITH,JONES,RUTH,805  BLUE JEAN  RD 2B,WHITEVILLE,NC,28472,3367293008,cc-b5f3d7e5-ea70-4e89-8259-77a79d647bc1,1264642090
icp_tta_prf1_iamtestpass_user43,Intuit@!123,icp_tta_prf1_iamtestpass_user43@blackhole.intuit.com,9849925247714152,visa,LAUREN,STROCK,ALEXANDRA,8090  ATLANTIC  BLVD F63,JACKSONVILLE,FL,32211,3866472098,cc-22e05c96-3be0-408c-85d4-3468c6734c82,1264642795,9849925247714253,visa,NETA,HANWAY,ALICE,10  ORCHARD  ST 4B,HACKENSACK,NJ,07601,8623461714,cc-b2137026-d1ca-406a-b386-df1c9d5ab6de,1264642800
icp_tta_prf1_iamtestpass_user44,Intuit@!123,icp_tta_prf1_iamtestpass_user44@blackhole.intuit.com,9849925247714153,visa,FELIPE,MCDONALD,FRANCIS,1993  ESSEX  RD ,LA RUE,OH,43332,2166991111,cc-d291235e-9dba-4840-b6cb-70b4a74c2eb5,1264643660,9849925247714254,visa,VANESSA,ELLIS,TARA,254  HIMROD  ST 2M,BROOKLYN,NY,11237,9178336932,cc-849495a7-0b54-4e0a-892f-4881a215bac9,1264643700
icp_tta_prf1_iamtestpass_user45,Intuit@!123,icp_tta_prf1_iamtestpass_user45@blackhole.intuit.com,9849925247714154,visa,JACQUELINE,IRVIN,DEBRA,8791  ROSE  CT S6,FORT MYERS,FL,33919,8503082474,cc-b02fe114-b18c-4baf-be72-05e0b38dc2eb,1264644330,9849925247714255,visa,BRIDGET,COFFEY,MITZI,12388  COLBY  DR ,MISHAWAKA,IN,46545,2197127530,cc-441cb5aa-f527-46ca-aa7c-a58638dcccf4,1264644630
icp_tta_prf1_iamtestpass_user46,Intuit@!123,icp_tta_prf1_iamtestpass_user46@blackhole.intuit.com,9849925247714155,visa,PAUL,SLOSTAD,CHARLES,601  POMPEY HILL  RD ,STOYSTOWN,PA,15563,5702858559,cc-79449f3e-9d47-4019-be90-72ddef1405ea,1264645390,9849925247714256,visa,KAREN,CALLAHAN,JENNIFER,4036  TERNWOOD  DR 2B,KALAMAZOO,MI,49048,6796458758,cc-dfb183b0-daa2-4e7f-8bfe-d03fa3d77953,1264645495
icp_tta_prf1_iamtestpass_user47,Intuit@!123,icp_tta_prf1_iamtestpass_user47@blackhole.intuit.com,9849925247714156,visa,ROBBY,TRAPP,FRANK,2292  CLOVERDALE SE DR ,ATLANTA,GA,30316,7067558411,cc-1a01afdf-623f-4871-b22b-ed823e24c570,1264646230,9849925247714257,visa,TAWANA,BOSWORTH,VALARIE,1380  ST LUKES  RD ,SALISBURY,MD,21804,3017984812,cc-28ae3b85-5d57-4b62-b553-8b7891432356,1264646310
icp_tta_prf1_iamtestpass_user48,Intuit@!123,icp_tta_prf1_iamtestpass_user48@blackhole.intuit.com,9849925247714157,visa,SANDRA,SAWYER,LILLIE,1060  MAITLAND CENTER COMMONS  BLVD 100,MAITLAND,FL,32751,3866756368,cc-d50c3166-647a-434f-91e2-e5b9c94b5fb4,1264647220,9849925247714258,visa,FAY,HOOTEN,MARY,103  HIBISCUS  DR D392,HOLLYWOOD,FL,33021,4077411592,cc-8d48cdb1-9dee-4b42-8dd2-d5b532c5d7ff,1264647250
icp_tta_prf1_iamtestpass_user49,Intuit@!123,icp_tta_prf1_iamtestpass_user49@blackhole.intuit.com,9849925247714158,visa,ESTER,SODHI,LISA,2816 W FORREST HILL  AVE ,PEORIA,IL,61604,7736165824,cc-8fc639d1-fa26-4949-b137-b24d603614c4,1264647950,9849925247714259,visa,BRENDA,BENNETT,DIANA,299 S 17TH  ST ,LEAVENWORTH,KS,66048,9132169342,cc-a22dfbdc-a172-4f49-b881-56632aab01da,1264647980
icp_tta_prf1_iamtestpass_user50,Intuit@!123,icp_tta_prf1_iamtestpass_user50@blackhole.intuit.com,9849925247714159,visa,WILLIAM,BAUMGARTNER,GABRIEL,76  HILL  ST ,WATERBURY,CT,06704,2033603561,cc-1f140f9e-3a0b-4e75-9391-30be98df6ed1,1264648740,9849925247714260,visa,HORACE,HASTINGS,KENTON,354 E 83RD  ST 42,NEW YORK,NY,10028,6463813455,cc-3a253634-04de-40c6-9e11-c016a62ec4ac,1264648760
icp_tta_prf1_iamtestpass_user51,Intuit@!123,icp_tta_prf1_iamtestpass_user51@blackhole.intuit.com,9849925247714160,visa,ALBERTA,HACKMAN,MARGARET,2022  PARAMOUNT  AVE ,AUSTIN,TX,78704,8176380240,cc-af16307d-3206-4bc5-b6e7-ca2ee29fad3a,1264649645,9849925247714261,visa,WILLIAM,HYSOM,MARC,11702  JOHNSON  RD ,FORT WAYNE,IN,46818,7659683129,cc-b6827d99-a2f8-4526-856d-3781e098895d,1264649645
icp_tta_prf1_iamtestpass_user52,Intuit@!123,icp_tta_prf1_iamtestpass_user52@blackhole.intuit.com,9849925247714161,visa,DESTINY,WALCH,VELMA,603 E JACKSON  ST ,SONORA,CA,95370,3239836656,cc-92ee2439-9995-4096-99a8-a554dea9fc4a,1264650375,9849925247714262,visa,RICHARD,GUERRERO,GARY,91  3RD  ST ,MAXWELL,TX,78656,9037260445,cc-3a6e8ae8-217f-4319-ab25-aefa17974dd1,1264650510
icp_tta_prf1_iamtestpass_user53,Intuit@!123,icp_tta_prf1_iamtestpass_user53@blackhole.intuit.com,9849925247714162,visa,MARCIA,GIST,SANDRA,2107  CHAPMAN RANCH  DR ,HENDERSON,NV,89012,7022900124,cc-a14d12da-b474-434b-9bf7-e4cfcd52d42b,1264651405,9849925247714263,visa,KEVIN,HINSON,EDDIE,14175  ROUTE A   ,RUSSELLVILLE,MO,65074,9755303805,cc-3e1683e6-e6a7-471f-93d9-727229633aa3,1264651375
icp_tta_prf1_iamtestpass_user54,Intuit@!123,icp_tta_prf1_iamtestpass_user54@blackhole.intuit.com,9849925247714163,visa,ROSAMOND,ARNOT,DAKOTA,11  BAGLEY MOUNTAIN  RD ,LINCOLN,ME,04457,3834458634,cc-9df65998-d65f-4b07-96f0-3b032f686359,1264652150,9849925247714264,visa,DAVID,ANDERSON,SYLVESTER,610  ROSE  ST 1202A,ROCK HILL,SC,29730,8433564185,cc-8daa6f68-b214-4a12-be6e-ec217d84dff9,1264652200
icp_tta_prf1_iamtestpass_user55,Intuit@!123,icp_tta_prf1_iamtestpass_user55@blackhole.intuit.com,9849925247714164,visa,MARIA,CAVETT,HAZEL,6066  SAMRICK NE AVE ,BELMONT,MI,49306,5463240552,cc-dc144788-f9f6-4e9a-b09a-8af3c92dadb3,1264652775,9849925247714265,visa,VANESSA,VANHOOSE,JAMIE,218 N WELLWOOD  AVE 10,LINDENHURST,NY,11757,6313235812,cc-a2a14e60-f173-428a-99f5-c6f2c7f4f2c6,1264652845
icp_tta_prf1_iamtestpass_user56,Intuit@!123,icp_tta_prf1_iamtestpass_user56@blackhole.intuit.com,9849925247714165,visa,MARK,WHEELER,ROBERT,533  CR 406   ,LAFE,AR,72436,8002062213,cc-b8617719-837b-4771-b866-63065c8f449e,1264653365,9849925247714266,visa,FELIX,GOLDBERG,RICHARD,12402  TOM MONTGOMERY  RD ,NORTHPORT,AL,35473,2566879863,cc-bf40dd33-a417-43cc-9501-6d4b78f0ba4f,1264653375
icp_tta_prf1_iamtestpass_user57,Intuit@!123,icp_tta_prf1_iamtestpass_user57@blackhole.intuit.com,9849925247714166,visa,ESTELLE,STELLHORN,KATRINA,431  TIGERTAIL  CT G573,HOLLYWOOD,FL,33021,4076212216,cc-d3d9ddfe-7c54-48e1-917c-b777e7630a3a,1264654325,9849925247714267,visa,CHRISTIE,HAWKINS,DANIELLE,48305  COUNTY ROAD 13   ,HAWARDEN,IA,51023,6413146376,cc-942c8fd4-2e8a-48d8-bcca-61184ae89df2,1264654375
icp_tta_prf1_iamtestpass_user58,Intuit@!123,icp_tta_prf1_iamtestpass_user58@blackhole.intuit.com,9849925247714167,visa,BRIAN,WEEDEN,GABRIEL,8500  BEVERLY  BLVD 715,LOS ANGELES,CA,90048,7145948203,cc-c005b8c7-3bbf-455f-9729-8f8a5cb0d400,1264654980,9849925247714268,visa,EILEEN,PHELPS,ASHA,2000  OLD COUNTY ROAD 34  PL ,BURNSVILLE,MN,55337,6518089984,cc-83241545-bb49-49fd-bcc2-5371442fa5c5,1264655050
icp_tta_prf1_iamtestpass_user59,Intuit@!123,icp_tta_prf1_iamtestpass_user59@blackhole.intuit.com,9849925247714168,visa,EVELYN,ERWIN,KYM,921037  KOIO  DR B,KAPOLEI,HI,96707,8082285958,cc-0d6d7817-2fe3-4c62-891e-b3d23ffbf0d5,1264655980,9849925247714269,visa,BERNARD,MORRIS,CHRISTOPHER,59  PO BOX   ,BOULDER CREEK,CA,95006,6617236541,cc-b4ca5cab-eebd-4f5b-99ff-23cc54fb689d,1264655980
icp_tta_prf1_iamtestpass_user60,Intuit@!123,icp_tta_prf1_iamtestpass_user60@blackhole.intuit.com,9849925247714169,visa,DEANNA,WEINSTEIN,DELFINA,550  ONE AMERICAN  CTR G270,AUSTIN,TX,78701,3252281268,cc-ace02fd6-0ade-44e7-aeef-964d8947a9dc,1264656655,9849925247714270,visa,JOANNA,COVEY,AIDE,2271  NERREDIA  ST ,FLINT,MI,48532,7346942400,cc-5f98704d-cfec-4e0a-9146-c307a8aaf26a,1264656675
icp_tta_prf1_iamtestpass_user61,Intuit@!123,icp_tta_prf1_iamtestpass_user61@blackhole.intuit.com,9849925247714170,visa,LYLE,MILNER,LEOPOLDO,1055 W BASELINE  RD 2008,MESA,AZ,85210,4808788493,cc-bbb723ae-b29e-4742-9478-cd4eec10fb67,1264657140,9849925247714271,visa,TERRY,BROWN,HELEN,1420  FRANKLIN  AVE 2,PORTSMOUTH,OH,45662,2344256194,cc-3c06138c-41ee-4ddb-a3ab-a71a4cefd30a,1264657140
icp_tta_prf1_iamtestpass_user62,Intuit@!123,icp_tta_prf1_iamtestpass_user62@blackhole.intuit.com,9849925247714171,visa,CLEO,PHILLIPS,ROBERT,7832  MAIN  ST 2K,FLUSHING,NY,11367,9147294385,cc-fa99ddb8-2ebb-4ec6-9647-dea091e2aaf6,1264658020,9849925247714272,visa,JEREMY,HESS,ANDREW,1817  VIVIAN  ST ,SHREVEPORT,LA,71108,3189823455,cc-9072de6d-9b74-4447-b8f3-136dc69ddc67,1264657995
icp_tta_prf1_iamtestpass_user63,Intuit@!123,icp_tta_prf1_iamtestpass_user63@blackhole.intuit.com,9849925247714172,visa,ALBERTA,DAVIS,MYRTLE,407  PARK  ST D,SPRINGDALE,AR,72764,8003070078,cc-bae6bf69-42d0-4114-aebe-4674a30fdd02,1264658495,9849925247714273,visa,ANTOINETTE,HYATT,FLORENCE,903  BISCAYNE BUILDING   610,MIAMI,FL,33130,9048878922,cc-f9ba8090-7514-41e4-8532-eef730f300b4,1264658630
icp_tta_prf1_iamtestpass_user64,Intuit@!123,icp_tta_prf1_iamtestpass_user64@blackhole.intuit.com,9849925247714173,visa,MARIA,BENEDICT,AMY,17707  FLORENCE  ST ,DETROIT,MI,48235,9898874822,cc-234215ff-fcec-4ba2-bd82-46ceb41490bd,1264659455,9849925247714274,visa,CAROLYN,FISHBURN,MABEL,30269  MILLER CHAPEL  RD ,NELSON,MO,65347,8163680518,cc-bc42af13-5e26-4bef-bfe7-dac59f94b816,1264659465
icp_tta_prf1_iamtestpass_user65,Intuit@!123,icp_tta_prf1_iamtestpass_user65@blackhole.intuit.com,9849925247714174,visa,EARL,WILSON,JOSEPH,1059  COMAL  ST ,AUSTIN,TX,78702,7133230405,cc-d7abdc6e-076d-414d-a21e-bbb7024bbacd,1264659955,9849925247714275,visa,LAUREN,CRAIG,KIMBERLY,3215 NW 13TH  ST ,GAINESVILLE,FL,32609,8633610864,cc-d7c9a89f-6fb3-4397-b6e6-5af3dc5d2490,1264659990
icp_tta_prf1_iamtestpass_user66,Intuit@!123,icp_tta_prf1_iamtestpass_user66@blackhole.intuit.com,9849925247714175,visa,PAUL,BROWN,CALVIN,2500 E PR ANNE  RD 205,NORFOLK,VA,23504,5403433913,cc-cbc054be-56e5-4fe5-89ef-3fcc85ff0db3,1264660750,9849925247714276,visa,DOROTHY,WILLIAMS,CAROLYN,28689  MOORESVILLE  RD ,ARDMORE,AL,35739,2513490148,cc-e50be641-4d94-408a-85ec-01178ca8b7bb,1264660775
icp_tta_prf1_iamtestpass_user67,Intuit@!123,icp_tta_prf1_iamtestpass_user67@blackhole.intuit.com,9849925247714176,visa,STACY,GARNER,CASSANDRA,7201 SW 109TH  PL ,MIAMI,FL,33173,7728684052,cc-505f18f6-5d9e-4d75-966c-47e390fae674,1264661615,9849925247714277,visa,EDWARD,GANTT,ROBERT,349  GEORGE  ST ,STEGER,IL,60475,8473415759,cc-784a2cc1-cb21-4dff-b2d1-566bcce75f1c,1264661560
icp_tta_prf1_iamtestpass_user68,Intuit@!123,icp_tta_prf1_iamtestpass_user68@blackhole.intuit.com,9849925247714177,visa,ANNA,HARRIS,CYNTHIA,7346 NE SANDY  BLVD A,PORTLAND,OR,97213,9718783612,cc-8ade666e-1ea1-4d0f-814a-0f47232d02bf,1264662205,9849925247714278,visa,MICHAEL,SOMERS,RUSSELL,4  LARCHWOOD  DR ,GOSHEN,NY,10924,6465802035,cc-479f5700-02ab-496e-9779-93a07974dcc0,1264662090
icp_tta_prf1_iamtestpass_user69,Intuit@!123,icp_tta_prf1_iamtestpass_user69@blackhole.intuit.com,9849925247714178,visa,SHENA,HOFHEIMER,ANNETTE,1481 N PLAZA  DR ,APACHE JUNCTION,AZ,85220,4803792548,cc-8dff01a8-2b50-42e7-98f7-7e00b805d3be,1264663015,9849925247714279,visa,MAGALY,YALE,MAYRA,2188 SE DIVISION  ST ,PORTLAND,OR,97202,5412495476,cc-9b503e2c-9a58-41c0-bb46-3b0033eff8e6,1264663030
icp_tta_prf1_iamtestpass_user70,Intuit@!123,icp_tta_prf1_iamtestpass_user70@blackhole.intuit.com,9849925247714179,visa,WALTER,WILLIAMS,RONALD,4  COURT  ST ,DELHI,NY,13753,3479813031,cc-0564da05-41be-4818-b388-1f8202a6d32c,1264663855,9849925247714280,visa,MINNIE,ROBINSON,LASHONDA,3333  164TH SW ST 1033,LYNNWOOD,WA,98087,2534270406,cc-a813e2ce-7ae9-4f1f-96a5-e08af3038844,1264663875
icp_tta_prf1_iamtestpass_user71,Intuit@!123,icp_tta_prf1_iamtestpass_user71@blackhole.intuit.com,9849925247714180,visa,ERNEST,MARTIN,PEDRO,14152 W 87TH  TER ,LENEXA,KS,66215,6206984947,cc-ed759efd-233b-4233-a32c-cceb58217b14,1264664395,9849925247714281,visa,CLEVELAND,PACK,CHESTER,2109 S 28TH  ST ,PHILADELPHIA,PA,19145,2678173619,cc-715cfc91-5275-4faa-ac60-45d5bff59ad2,1264664495
icp_tta_prf1_iamtestpass_user72,Intuit@!123,icp_tta_prf1_iamtestpass_user72@blackhole.intuit.com,9849925247714181,visa,LOUIS,GILL,WALLACE,4850  ALLEN PARK  DR ,ALLENDALE,MI,49401,2486078573,cc-40a60944-5feb-4053-b058-9f4158048df3,1264665070,9849925247714282,visa,ALTON,HOOKS,DANIEL,415848  PO BOX   ,MIAMI BEACH,FL,33141,4074718661,cc-d27d17be-c236-4b67-80ea-20a154fb32d4,1264665205
icp_tta_prf1_iamtestpass_user73,Intuit@!123,icp_tta_prf1_iamtestpass_user73@blackhole.intuit.com,9849925247714182,visa,DOROTHY,DUBIN,MATILDE,3331  HIGHWAY W  ,WARRENTON,MO,63383,4173234436,cc-c8d5bb1e-8d98-426d-9840-eb26f066897f,1264665765,9849925247714283,visa,WILLIAM,MCKENZIE,MARK,142 W 63RD  ST ,KANSAS CITY,MO,64113,6608587811,cc-750edb13-8a76-4350-8881-6198238ffebe,1264665875
icp_tta_prf1_iamtestpass_user74,Intuit@!123,icp_tta_prf1_iamtestpass_user74@blackhole.intuit.com,9849925247714183,visa,VELMA,MATTHEWS,MICHELE,7742  INDIAN  TRL ,ENGADINE,MI,49827,2318991290,cc-a18f79e2-dab6-409b-91cd-8690eeabdab0,1264666385,9849925247714284,visa,PATRICIA,HAWTHORNE,JACQUELINE,1782  WILDWOOD  RD ,TOLEDO,OH,43614,4405164798,cc-b0f7716d-4327-4f29-b55b-950c03afc98c,1264666625
icp_tta_prf1_iamtestpass_user75,Intuit@!123,icp_tta_prf1_iamtestpass_user75@blackhole.intuit.com,9849925247714184,visa,KEVIN,SAMUELS,ROBBIE,18740  LAMONT  ST ,OMAHA,NE,68130,4027453755,cc-c031a30a-765c-4e7d-a906-198e79dce3f2,1264667175,9849925247714285,visa,ELIZABETH,MOLINA,ALICE,3170  FRENCH RIDGE  RD ,MERRILL,WI,54452,4208903548,cc-a7ab3132-32fc-4369-a295-ea904d2f4ec1,1264667280
icp_tta_prf1_iamtestpass_user76,Intuit@!123,icp_tta_prf1_iamtestpass_user76@blackhole.intuit.com,9849925247714185,visa,JONATHAN,POLLOCK,PATRICK,3709  OLD CAPITOL  TRL ,WILMINGTON,DE,19808,3027105945,cc-7f3feaf3-646c-46a4-87ad-d03b6cc1e11d,1264667970,9849925247714286,visa,JOHN,WILLIAMS,MICHAEL,964  BURBANK  AVE ,JANESVILLE,WI,53546,2626368639,cc-a76ca7c1-43df-4318-a1fc-30c554378337,1264667970
icp_tta_prf1_iamtestpass_user77,Intuit@!123,icp_tta_prf1_iamtestpass_user77@blackhole.intuit.com,9849925247714186,visa,GENE,BALL,BILLY,508 W PALATINE  RD ,PALATINE,IL,60067,8152317355,cc-4651d3ce-cd84-469f-86de-a2cb6cb0e239,1264668805,9849925247714287,visa,ANNA,BURGESS,CHERYL,112  EASTERN  PKWY ,IRVINGTON,NJ,07111,8483020388,cc-a1ba1d23-66d2-4a21-ae1a-99b391896f7a,1264668835
icp_tta_prf1_iamtestpass_user78,Intuit@!123,icp_tta_prf1_iamtestpass_user78@blackhole.intuit.com,9849925247714187,visa,ROGER,CATANIA,DAVID,681  BABBITT  RD D103,EUCLID,OH,44123,9373085837,cc-a24348fa-7665-49bb-bdc6-cfe75bc36d0f,1264669535,9849925247714288,visa,MARIA,MCCLELLAN,ROBIN,7497  CEDAR CREEK  RD ,DELTON,MI,49046,6162844386,cc-383afd23-f0a7-4449-8149-0621dd015da7,1264669490
icp_tta_prf1_iamtestpass_user79,Intuit@!123,icp_tta_prf1_iamtestpass_user79@blackhole.intuit.com,9849925247714188,visa,STANLEY,PEREZ,CHRISTIAN,1100  PINELLA BAYWAY   I1,SAINT PETERSBURG,FL,33715,3052213877,cc-f954cf4e-7150-48c9-a3dd-55448783988d,1264670225,9849925247714289,visa,HAE,RACZKA,LUCILLE,1334 N 14TH  ST 27,WHITEHALL,PA,18052,4454249822,cc-7531f50c-8790-4e13-a0a7-1b6ed9af1856,1264670250
icp_tta_prf1_iamtestpass_user80,Intuit@!123,icp_tta_prf1_iamtestpass_user80@blackhole.intuit.com,9849925247714189,visa,DENNIS,ROLLINS,GLEN,5564  JOSHUA  RD ,PHELAN,CA,92371,7477238469,cc-9a549841-8ef0-4abb-9fe4-49325adb714a,1264670990,9849925247714290,visa,RAUL,CRAWFORD,JEFFREY,2624 W COLUMBIA  AVE ,SPOKANE,WA,99205,3602914933,cc-8e7bec19-84be-4c79-ad4d-025ec7d20d91,1264671140
icp_tta_prf1_iamtestpass_user81,Intuit@!123,icp_tta_prf1_iamtestpass_user81@blackhole.intuit.com,9849925247714190,visa,CONSTANCE,SHANKLE,CATHERINE,1048 N EASTERN  AVE ,CROWLEY,LA,70526,9855477426,cc-1d261d33-b406-484a-8b84-afb4d2f31fad,1264671825,9849925247714291,visa,MEGAN,RAGLAND,GERTUDE,9396 N FARM ROAD 183   ,FAIR GROVE,MO,65648,6369200736,cc-7024c269-8eec-46c4-90b9-ad301c2d48a6,1264671850
icp_tta_prf1_iamtestpass_user82,Intuit@!123,icp_tta_prf1_iamtestpass_user82@blackhole.intuit.com,9849925247714191,visa,TIM,THOMPSON,DAVID,225 E GOLF  DR D386,HOLLYWOOD,FL,33021,4072087149,cc-41db9e64-ef1b-4240-a8fa-83acbfc162bd,1264672335,9849925247714292,visa,CARY,LARSON,DUANE,19628  FM 1689   ,MAY,TX,76857,8069267127,cc-311bc43f-f4b0-4df5-956a-be72067bab64,1264672460
icp_tta_prf1_iamtestpass_user83,Intuit@!123,icp_tta_prf1_iamtestpass_user83@blackhole.intuit.com,9849925247714192,visa,PATRICIA,SANCHEZ,GLORIA,341  KESWICK  DR ,CLARKSVILLE,IN,47129,8123741692,cc-9a9bb3ce-8d66-4358-8315-c0626d020300,1264673280,9849925247714293,visa,MARY,WATSON,CONNIE,17271  RAUPP  ST 6B,MELVINDALE,MI,48122,8104117356,cc-d4c246c4-03ec-41b7-b12e-cbf9d6e22d6c,1264673410
icp_tta_prf1_iamtestpass_user84,Intuit@!123,icp_tta_prf1_iamtestpass_user84@blackhole.intuit.com,9849925247714193,visa,NATHAN,REILLY,WILLIAM,3132  LAWRENCE  ST ,RED WING,MN,55066,9522263607,cc-103d2485-2580-409d-9b40-c74d11fb2e64,1264673885,9849925247714294,visa,RANDALL,CARNES,DAVID,2600  MUSTANG  DR 129,GRAPEVINE,TX,76051,3252600179,cc-28e6d7a1-8d7d-420d-8ae5-935914adec95,1264673960
icp_tta_prf1_iamtestpass_user85,Intuit@!123,icp_tta_prf1_iamtestpass_user85@blackhole.intuit.com,9849925247714194,visa,MARTHA,GONZALEZ,CHRISTINE,25304  113TH SE AVE ,KENT,WA,98030,5642206330,cc-894fa8b7-1585-4dcd-a275-e91463ea1d34,1264674705,9849925247714295,visa,ROY,JOHNSON,STEPHEN,2967  MIAMI  ST ,LAKE STATION,IN,46405,5742171489,cc-449cb93b-b086-4a2f-bd7b-0a961a5c38f0,1264674825
icp_tta_prf1_iamtestpass_user86,Intuit@!123,icp_tta_prf1_iamtestpass_user86@blackhole.intuit.com,9849925247714195,visa,JIMMY,CARY,STEPHEN,2098 E HISTORIC HIGHWAY 66   ,GALLUP,NM,87301,9576077759,cc-ad1589ab-97a5-464f-9620-32929224632a,1264675725,9849925247714296,visa,ANNE,CASTILLO,MICHELE,694 W HARTS  RD ,YULEE,FL,32097,9412341702,cc-d4381291-c7d5-414d-8ba9-0db2f7f4f637,1264675725
icp_tta_prf1_iamtestpass_user87,Intuit@!123,icp_tta_prf1_iamtestpass_user87@blackhole.intuit.com,9849925247714196,visa,ELIZABETH,OLIPHANT,BARBARA,20157 S HILLCREST  DR ,PORTER,TX,77365,9723800040,cc-ff87fbcf-2277-4e85-8cae-173daa8a6336,1264676360,9849925247714297,visa,MORIAH,RUSSO,SANDRA,5754  E  AVE 48,HILL AFB,UT,84056,3855719440,cc-8cd21c28-dcc7-4976-9ba5-5fcba6f26727,1264676400
icp_tta_prf1_iamtestpass_user88,Intuit@!123,icp_tta_prf1_iamtestpass_user88@blackhole.intuit.com,9849925247714197,visa,JOHN,LOPEZ,MICHAEL,1830  GRANDVIEW  AVE ,PORTSMOUTH,OH,45662,2345440345,cc-98027589-90f5-4ddd-8e4b-2877c35c14f1,1264677295,9849925247714298,visa,LULA,BATARSE,AMANDA,1309  PWDR SPGS  ST ,MARIETTA,GA,30064,4786039612,cc-9c7255a4-eed2-46ea-bbdc-5faf87c889b9,1264677340
icp_tta_prf1_iamtestpass_user89,Intuit@!123,icp_tta_prf1_iamtestpass_user89@blackhole.intuit.com,9849925247714198,visa,PAMELA,STOUT,GINA,1044  WOOD VIEW  RD ,SANDPOINT,ID,83864,2085670540,cc-c63e671f-bf2a-444e-a01d-549487381241,1264678155,9849925247714299,visa,FRANCES,BURKHARDT,LYNN,121  MORTONS LAKE  RD ,MANCHESTER,TN,37355,7319291022,cc-680404e8-5238-4a0c-bbc4-ba16e27fbdc5,1264678185
icp_tta_prf1_iamtestpass_user90,Intuit@!123,icp_tta_prf1_iamtestpass_user90@blackhole.intuit.com,9849925247714199,visa,GREG,SEYMER,VICTOR,3331  SCHUST  RD ,SAGINAW,MI,48603,2789384917,cc-1a12bc80-3822-465c-b564-73178b4218c3,1264678830,9849925247714300,visa,RACHEL,JAGEMAN,PAMELA,6773 E 10TH N ST ,WICHITA,KS,67206,3162919770,cc-c1720efd-eba4-4b4d-97b9-1c43680b22d4,1264678905
icp_tta_prf1_iamtestpass_user91,Intuit@!123,icp_tta_prf1_iamtestpass_user91@blackhole.intuit.com,9849925247714200,visa,MARVIN,PACHECO,JAMIE,242 S HILLS  VLG 401,PITTSBURGH,PA,15241,8358126287,cc-85f7f1f9-cbae-4c88-8cc1-3d07d0583534,1264679685,9849925247714301,visa,KEITH,ROSSETTI,JAMES,5702  DESERT OAK  WAY ,SPRING,TX,77379,8177086743,cc-fd05017a-0fd4-4cb8-bae6-307d5f37082a,1264679685
icp_tta_prf1_iamtestpass_user92,Intuit@!123,icp_tta_prf1_iamtestpass_user92@blackhole.intuit.com,9849925247714201,visa,RICHARD,LEE,ENRIQUE,178  BRIGHTON  AVE ,ALLSTON,MA,02134,5089255723,cc-2020d7f0-82bf-4c3e-880a-7bae4fe6c90e,1264680555,9849925247714302,visa,DENISE,RANGEL,MABEL,7  RURAL ROUTE   2651C,EXPORT,PA,15632,4847233176,cc-ee37e679-8767-4cf0-8583-09c38edfee12,1264680670
icp_tta_prf1_iamtestpass_user93,Intuit@!123,icp_tta_prf1_iamtestpass_user93@blackhole.intuit.com,9849925247714202,visa,BENJAMIN,PARRISH,JAMES,5501  ROUTE 14   ,CRYSTAL LAKE,IL,60014,6182100897,cc-c13db3e0-a058-46b8-8ebf-5822d6162c39,1264681610,9849925247714303,visa,WILLIE,SIEMERING,GERALD,1125  12TH SE AVE A204,OLYMPIA,WA,98501,2533016205,cc-6785e58d-e83d-4561-87a3-e736475504fa,1264681660
icp_tta_prf1_iamtestpass_user94,Intuit@!123,icp_tta_prf1_iamtestpass_user94@blackhole.intuit.com,9849925247714203,visa,JOHNNY,FAW,SAM,1  RURAL ROUTE   111,ALLENDALE,IL,62410,3316698605,cc-fb9a860f-953c-45e9-a6ee-6a844c21196f,1264682270,9849925247714304,visa,CHARLES,BARRERA,ROBERT,515  BIRCH E ST ,FREDERIC,WI,54837,4209398329,cc-91b35d3a-deae-4a57-8b58-4d03e5c1afbf,1264682275
icp_tta_prf1_iamtestpass_user95,Intuit@!123,icp_tta_prf1_iamtestpass_user95@blackhole.intuit.com,9849925247714204,visa,ALEIDA,PATTERSON,BETTY,2184  BONITA S WAY ,SAINT PETERSBURG,FL,33712,5613405944,cc-1186cade-c32d-44ff-addf-8619cdf67fa7,1264683140,9849925247714305,visa,DEBORAH,ALLISON,SARA,15075  PARK SIDE  DR 4,FORT MYERS,FL,33908,3523819194,cc-3c8d0696-20f6-4e30-970e-1e5e6470cebb,1264683085
icp_tta_prf1_iamtestpass_user96,Intuit@!123,icp_tta_prf1_iamtestpass_user96@blackhole.intuit.com,9849925247714205,visa,GLORIA,MCLAURIN,LUANNE,1493 W KATELLA  AVE ,ORANGE,CA,92867,8588912140,cc-062526a5-89b3-457c-8ee9-995a5c28eb16,1264683915,9849925247714306,visa,LUCILLE,FINNEY,HAZEL,903  TENNISMASTER  VL 806,HILTON HEAD ISLAND,SC,29928,8437578192,cc-8fca0665-09b1-4c03-8012-856f8fe59669,1264683885
icp_tta_prf1_iamtestpass_user97,Intuit@!123,icp_tta_prf1_iamtestpass_user97@blackhole.intuit.com,9849925247714206,visa,JEAN,THOMAS,EULA,6850  RIVERDALE  RD T1,LANHAM,MD,20706,4432483222,cc-32b10076-012e-4cb2-b66f-aaa8d66c7b84,1264684725,9849925247714307,visa,JEFFERY,KRONER,CARLTON,2251  YUCCA  AVE ,PEMBROKE PINES,FL,33026,7546568589,cc-3cb526f5-43f8-44d6-93d9-da41a3a5523f,1264684750
icp_tta_prf1_iamtestpass_user98,Intuit@!123,icp_tta_prf1_iamtestpass_user98@blackhole.intuit.com,9849925247714207,visa,THOMAS,BALL,MIKE,3579 W 3750 S  ,ROOSEVELT,UT,84066,4353186271,cc-5a4c96e9-7c19-4808-a0fb-bc73a46389d8,1264685495,9849925247714308,visa,HARRIET,HOSKINS,MARIA,7851 NW 6TH  ST ,PEMBROKE PINES,FL,33024,7273213002,cc-1c25359a-ed21-43f7-b66b-6c619864d8ea,1264685565
icp_tta_prf1_iamtestpass_user99,Intuit@!123,icp_tta_prf1_iamtestpass_user99@blackhole.intuit.com,9849925247714208,visa,HATTIE,THOMAS,DORIS,301 E PINE  ST 830,ORLANDO,FL,32801,4077063226,cc-2467936a-a000-4df6-ad5e-70d32c49e871,1264686305,9849925247714309,visa,GILBERT,FINCH,ROBERT,3253  GIRARD S AVE 2,MINNEAPOLIS,MN,55408,7632861661,cc-f67b297e-db07-44c6-8116-e02d731650d8,1264686325
icp_tta_prf1_iamtestpass_user100,Intuit@!123,icp_tta_prf1_iamtestpass_user100@blackhole.intuit.com,9849925247714209,visa,ANTOINETTE,MEKEE,MELANIE,6200  SUNSET  DR ,SOUTH MIAMI,FL,33143,8364577114,cc-2ee8e354-8639-4cdd-85fc-5397df19a43b,1264687025,9849925247714310,visa,MICHAEL,DORTCH,LYLE,6750  MARINE  WAY ,IRVINE,CA,92618,4153163757,cc-043a02b3-bf38-48df-a84a-9b50a20475cd,1264686975
